{"type": "FeatureCollection", "features": [ {"type": "Feature", "properties": {"norad_id": 40664, "name": "SKY MEXICO-1", "group": "intelsat", "lat": 0.019694409668096814, "lon": 159.569209255856, "alt_km": 35792.87956950583, "timestamp": "2025-12-27T09:28:56.135046+00:00", "meta": {"OBJECT_NAME": "SKY MEXICO-1", "OBJECT_ID": "2015-026B", "EPOCH": "2025-12-27T04:54:08.457120", "MEAN_MOTION": 1.00271927, "ECCENTRICITY": 0.0002545, "INCLINATION": 0.0124, "RA_OF_ASC_NODE": 28.4396, "ARG_OF_PERICENTER": 260.5525, "MEAN_ANOMALY": 161.7203, "EPHEMERIS_TYPE": 0, "CLASSIFICATION_TYPE": "U", "NORAD_CAT_ID": 40664, "ELEMENT_SET_NO": 999, "REV_AT_EPOCH": 3873, "BSTAR": 0, "MEAN_MOTION_DOT": -2.12e-06, "MEAN_MOTION_DDOT": 0}, "tle": {"line1": "1 40664U 15026B   25361.20426455 -.00000212  00000+0  00000+0 0  9993", "line2": "2 40664   0.0124  28.4396 0002545 260.5525 161.7203  1.00271927 38732"}}, "geometry": {"type": "Point", "coordinates": [159.569209255856, 0.019694409668096814]}}, {"type": "Feature", "properties": {"norad_id": 40874, "name": "INTELSAT 34 (IS-34)", "group": "intelsat", "lat": -0.0064762410988072755, "lon": -177.1634459420205, "alt_km": 35784.87675547987, "timestamp": "2025-12-27T09:28:56.135058+00:00", "meta": {"OBJECT_NAME": "INTELSAT 34 (IS-34)", "OBJECT_ID": "2015-039A", "EPOCH": "2025-12-26T01:50:17.564352", "MEAN_MOTION": 1.00269247, "ECCENTRICITY": 5.15e-05, "INCLINATION": 0.0147, "RA_OF_ASC_NODE": 340.5004, "ARG_OF_PERICENTER": 185.0401, "MEAN_ANOMALY": 261.3543, "EPHEMERIS_TYPE": 0, "CLASSIFICATION_TYPE": "U", "NORAD_CAT_ID": 40874, "ELEMENT_SET_NO": 999, "REV_AT_EPOCH": 3788, "BSTAR": 0, "MEAN_MOTION_DOT": -2.64e-06, "MEAN_MOTION_DDOT": 0}, "tle": {"line1": "1 40874U 15039A   25360.07659218 -.00000264  00000+0  00000+0 0  9996", "line2": "2 40874   0.0147 340.5004 0000515 185.0401 261.3543  1.00269247 37884"}}, "geometry": {"type": "Point", "coordinates": [-177.1634459420205, -0.0064762410988072755]}}, {"type": "Feature", "properties": {"norad_id": 41581, "name": "INTELSAT 31 (IS-31)", "group": "intelsat", "lat": 0.00035120702579285464, "lon": 143.24512101528458, "alt_km": 35783.05125527228, "timestamp": "2025-12-27T09:28:56.135071+00:00", "meta": {"OBJECT_NAME": "INTELSAT 31 (IS-31)", "OBJECT_ID": "2016-035A", "EPOCH": "2025-12-23T19:31:44.703840", "MEAN_MOTION": 1.00269658, "ECCENTRICITY": 0.0001926, "INCLINATION": 0.0283, "RA_OF_ASC_NODE": 262.055, "ARG_OF_PERICENTER": 303.365, "MEAN_ANOMALY": 85.0534, "EPHEMERIS_TYPE": 0, "CLASSIFICATION_TYPE": "U", "NORAD_CAT_ID": 41581, "ELEMENT_SET_NO": 999, "REV_AT_EPOCH": 3492, "BSTAR": 0, "MEAN_MOTION_DOT": -1.29e-06, "MEAN_MOTION_DDOT": 0}, "tle": {"line1": "1 41581U 16035A   25357.81371185 -.00000129  00000+0  00000+0 0  9991", "line2": "2 41581   0.0283 262.0550 0001926 303.3650  85.0534  1.00269658 34922"}}, "geometry": {"type": "Point", "coordinates": [143.24512101528458, 0.00035120702579285464]}}, {"type": "Feature", "properties": {"norad_id": 41747, "name": "INTELSAT 36 (IS-36)", "group": "intelsat", "lat": -0.025288666703059716, "lon": -53.15973137237459, "alt_km": 35784.40917990088, "timestamp": "2025-12-27T09:28:56.135084+00:00", "meta": {"OBJECT_NAME": "INTELSAT 36 (IS-36)", "OBJECT_ID": "2016-053A", "EPOCH": "2025-12-27T03:03:20.357280", "MEAN_MOTION": 1.00264918, "ECCENTRICITY": 8.53e-05, "INCLINATION": 0.0102, "RA_OF_ASC_NODE": 6.9586, "ARG_OF_PERICENTER": 303.4341, "MEAN_ANOMALY": 259.7991, "EPHEMERIS_TYPE": 0, "CLASSIFICATION_TYPE": "U", "NORAD_CAT_ID": 41747, "ELEMENT_SET_NO": 999, "REV_AT_EPOCH": 3422, "BSTAR": 0, "MEAN_MOTION_DOT": -1e-08, "MEAN_MOTION_DDOT": 0}, "tle": {"line1": "1 41747U 16053A   25361.12731895 -.00000001  00000+0  00000+0 0  9991", "line2": "2 41747   0.0102   6.9586 0000853 303.4341 259.7991  1.00264918 34220"}}, "geometry": {"type": "Point", "coordinates": [-53.15973137237459, -0.025288666703059716]}}, {"type": "Feature", "properties": {"norad_id": 41945, "name": "INTELSAT 32E (IS-32E)", "group": "intelsat", "lat": 0.020450528254471367, "lon": -164.81167635081923, "alt_km": 35782.949333584715, "timestamp": "2025-12-27T09:28:56.135096+00:00", "meta": {"OBJECT_NAME": "INTELSAT 32E (IS-32E)", "OBJECT_ID": "2017-007B", "EPOCH": "2025-12-27T02:31:30.904320", "MEAN_MOTION": 1.00280959, "ECCENTRICITY": 2.98e-05, "INCLINATION": 0.0263, "RA_OF_ASC_NODE": 74.6259, "ARG_OF_PERICENTER": 182.4769, "MEAN_ANOMALY": 193.4455, "EPHEMERIS_TYPE": 0, "CLASSIFICATION_TYPE": "U", "NORAD_CAT_ID": 41945, "ELEMENT_SET_NO": 999, "REV_AT_EPOCH": 3250, "BSTAR": 0, "MEAN_MOTION_DOT": -2.46e-06, "MEAN_MOTION_DDOT": 0}, "tle": {"line1": "1 41945U 17007B   25361.10521880 -.00000246  00000+0  00000+0 0  9991", "line2": "2 41945   0.0263  74.6259 0000298 182.4769 193.4455  1.00280959 32500"}}, "geometry": {"type": "Point", "coordinates": [-164.81167635081923, 0.020450528254471367]}}, {"type": "Feature", "properties": {"norad_id": 42818, "name": "INTELSAT 35E (IS-35E)", "group": "intelsat", "lat": 0.004012492883383908, "lon": -156.16165234776926, "alt_km": 35782.18761255406, "timestamp": "2025-12-27T09:28:56.135107+00:00", "meta": {"OBJECT_NAME": "INTELSAT 35E (IS-35E)", "OBJECT_ID": "2017-041A", "EPOCH": "2025-12-27T02:33:53.175744", "MEAN_MOTION": 1.00273448, "ECCENTRICITY": 0.0002057, "INCLINATION": 0.0173, "RA_OF_ASC_NODE": 44.1749, "ARG_OF_PERICENTER": 226.2579, "MEAN_ANOMALY": 189.3865, "EPHEMERIS_TYPE": 0, "CLASSIFICATION_TYPE": "U", "NORAD_CAT_ID": 42818, "ELEMENT_SET_NO": 999, "REV_AT_EPOCH": 3109, "BSTAR": 0, "MEAN_MOTION_DOT": -2.15e-06, "MEAN_MOTION_DDOT": 0}, "tle": {"line1": "1 42818U 17041A   25361.10686546 -.00000215  00000+0  00000+0 0  9996", "line2": "2 42818   0.0173  44.1749 0002057 226.2579 189.3865  1.00273448 31094"}}, "geometry": {"type": "Point", "coordinates": [-156.16165234776926, 0.004012492883383908]}}, {"type": "Feature", "properties": {"norad_id": 42950, "name": "INTELSAT 37E (IS-37E)", "group": "intelsat", "lat": -0.01097613948995737, "lon": -139.6617930948873, "alt_km": 35776.64297902156, "timestamp": "2025-12-27T09:28:56.135119+00:00", "meta": {"OBJECT_NAME": "INTELSAT 37E (IS-37E)", "OBJECT_ID": "2017-059A", "EPOCH": "2025-12-27T02:38:37.722048", "MEAN_MOTION": 1.00271389, "ECCENTRICITY": 0.0003123, "INCLINATION": 0.0187, "RA_OF_ASC_NODE": 30.7857, "ARG_OF_PERICENTER": 233.1292, "MEAN_ANOMALY": 213.5983, "EPHEMERIS_TYPE": 0, "CLASSIFICATION_TYPE": "U", "NORAD_CAT_ID": 42950, "ELEMENT_SET_NO": 999, "REV_AT_EPOCH": 3034, "BSTAR": 0, "MEAN_MOTION_DOT": -1.18e-06, "MEAN_MOTION_DDOT": 0}, "tle": {"line1": "1 42950U 17059A   25361.11015882 -.00000118  00000+0  00000+0 0  9994", "line2": "2 42950   0.0187  30.7857 0003123 233.1292 213.5983  1.00271389 30341"}}, "geometry": {"type": "Point", "coordinates": [-139.6617930948873, -0.01097613948995737]}}, {"type": "Feature", "properties": {"norad_id": 43632, "name": "AZERSPACE 2 (IS-38)", "group": "intelsat", "lat": -0.03386128138698369, "lon": -76.53408803775325, "alt_km": 35780.11773503455, "timestamp": "2025-12-27T09:28:56.135131+00:00", "meta": {"OBJECT_NAME": "AZERSPACE 2 (IS-38)", "OBJECT_ID": "2018-074A", "EPOCH": "2025-12-27T02:56:43.490112", "MEAN_MOTION": 1.00271001, "ECCENTRICITY": 0.0001466, "INCLINATION": 0.016, "RA_OF_ASC_NODE": 358.3551, "ARG_OF_PERICENTER": 277.9492, "MEAN_ANOMALY": 268.8465, "EPHEMERIS_TYPE": 0, "CLASSIFICATION_TYPE": "U", "NORAD_CAT_ID": 43632, "ELEMENT_SET_NO": 999, "REV_AT_EPOCH": 2672, "BSTAR": 0, "MEAN_MOTION_DOT": 1.59e-06, "MEAN_MOTION_DDOT": 0}, "tle": {"line1": "1 43632U 18074A   25361.12272558  .00000159  00000+0  00000+0 0  9990", "line2": "2 43632   0.0160 358.3551 0001466 277.9492 268.8465  1.00271001 26722"}}, "geometry": {"type": "Point", "coordinates": [-76.53408803775325, -0.03386128138698369]}}, {"type": "Feature", "properties": {"norad_id": 43633, "name": "HORIZONS-3E", "group": "intelsat", "lat": -0.009913232780815325, "lon": 47.37617898112608, "alt_km": 35786.65466063569, "timestamp": "2025-12-27T09:28:56.135142+00:00", "meta": {"OBJECT_NAME": "HORIZONS-3E", "OBJECT_ID": "2018-074B", "EPOCH": "2025-12-26T17:15:43.848000", "MEAN_MOTION": 1.00274781, "ECCENTRICITY": 7.29e-05, "INCLINATION": 0.0491, "RA_OF_ASC_NODE": 194.9821, "ARG_OF_PERICENTER": 94.8605, "MEAN_ANOMALY": 233.5586, "EPHEMERIS_TYPE": 0, "CLASSIFICATION_TYPE": "U", "NORAD_CAT_ID": 43633, "ELEMENT_SET_NO": 999, "REV_AT_EPOCH": 2661, "BSTAR": 0, "MEAN_MOTION_DOT": -7e-08, "MEAN_MOTION_DDOT": 0}, "tle": {"line1": "1 43633U 18074B   25360.71925750 -.00000007  00000+0  00000+0 0  9997", "line2": "2 43633   0.0491 194.9821 0000729  94.8605 233.5586  1.00274781 26616"}}, "geometry": {"type": "Point", "coordinates": [47.37617898112608, -0.009913232780815325]}}, {"type": "Feature", "properties": {"norad_id": 44333, "name": "AT&T T-16", "group": "intelsat", "lat": 0.03220270496408352, "lon": 137.52370422699545, "alt_km": 35781.10222947267, "timestamp": "2025-12-27T09:28:56.135154+00:00", "meta": {"OBJECT_NAME": "AT&T T-16", "OBJECT_ID": "2019-034A", "EPOCH": "2025-12-26T09:24:01.437984", "MEAN_MOTION": 1.00280007, "ECCENTRICITY": 9.59e-05, "INCLINATION": 0.0209, "RA_OF_ASC_NODE": 69.0211, "ARG_OF_PERICENTER": 116.5883, "MEAN_ANOMALY": 309.683, "EPHEMERIS_TYPE": 0, "CLASSIFICATION_TYPE": "U", "NORAD_CAT_ID": 44333, "ELEMENT_SET_NO": 999, "REV_AT_EPOCH": 2390, "BSTAR": 0, "MEAN_MOTION_DOT": -9.5e-07, "MEAN_MOTION_DDOT": 0}, "tle": {"line1": "1 44333U 19034A   25360.39168331 -.00000095  00000+0  00000+0 0  9997", "line2": "2 44333   0.0209  69.0211 0000959 116.5883 309.6830  1.00280007 23905"}}, "geometry": {"type": "Point", "coordinates": [137.52370422699545, 0.03220270496408352]}}]}